IRIDIUM 126             
1 42809U 17039G   25279.05170463  .00000179  00000+0  56762-4 0  9990
2 42809  86.3913  99.8961 0002316  91.8843 268.2618 14.34216033433529
IRIDIUM 124             
1 42810U 17039H   25279.09352904  .00000711  00000+0  20523-3 0  9995
2 42810  86.4517  36.5697 0002230  89.7066 270.4391 14.43280648438468
IRIDIUM 128             
1 42811U 17039J   25279.11219905  .00000443  00000+0  15129-3 0  9990
2 42811  86.3957 131.3960 0002135  74.2173 285.9259 14.34215907433561
IRIDIUM 121             
1 42812U 17039K   25279.07073154  .00000178  00000+0  56489-4 0  9990
2 42812  86.3912  99.9140 0002026  86.0669 274.0758 14.34218410433400
IRIDIUM 133             
1 42955U 17061A   25279.07415063  .00000362  00000+0  12231-3 0  9993
2 42955  86.3960 131.5236 0002131  84.3984 275.7455 14.34215690418354
IRIDIUM 100             
1 42956U 17061B   25279.13757846 -.00000040  00000+0 -21354-4 0  9991
2 42956  86.3960 131.4213 0002173  84.8993 275.2451 14.34216979418363
IRIDIUM 122             
1 42957U 17061C   25279.03609778  .00000119  00000+0  35452-4 0  9990
2 42957  86.3958 131.4635 0002247  84.7731 275.3721 14.34216538418351
IRIDIUM 129             
1 42958U 17061D   25279.13122484  .00000411  00000+0  13957-3 0  9996
2 42958  86.3959 131.4879 0002098  97.1936 262.9498 14.34217759418384
